start=new Date('2023-03-08T00:00:00.000Z').valueOf();
sats=[{"SEMIMAJOR_AXIS":"6925.368","INCLINATION":"53.0541","SITE":"AFETR","DECAY_DATE":null,"COUNTRY_CODE":"US","BSTAR":"0.00089540000000","PERIAPSIS":"546.292","TLE_LINE2":"2 48568  53.0541  19.8133 0001359 117.5438 242.5689 15.06393536 99738","CLASSIFICATION_TYPE":"U","MEAN_ANOMALY":"242.5689","REF_FRAME":"TEME","TIME_SYSTEM":"UTC","MEAN_MOTION":"15.06393536","LAUNCH_DATE":"2021-05-15","EPOCH":"2023-03-07T21:29:22.512480","OBJECT_TYPE":"PAYLOAD","RA_OF_ASC_NODE":"19.8133","TLE_LINE1":"1 48568U 21041R   23066.89539945  .00013078  00000-0  89540-3 0  9996","OBJECT_NAME":"STARLINK-2217","ECCENTRICITY":"0.00013590","PERIOD":"95.593","OBJECT_ID":"2021-041R","NORAD_CAT_ID":"48568","MEAN_MOTION_DOT":"0.00013078","ARG_OF_PERICENTER":"117.5438","MEAN_ELEMENT_THEORY":"SGP4","RCS_SIZE":"LARGE","EPHEMERIS_TYPE":"0","FILE":"3854072","APOAPSIS":"548.175","GP_ID":"227672734","ELEMENT_SET_NO":"999","REV_AT_EPOCH":"9973","CENTER_NAME":"EARTH","MEAN_MOTION_DDOT":"0.0000000000000"},{"REV_AT_EPOCH":"9965","CENTER_NAME":"EARTH","MEAN_MOTION_DDOT":"0.0000000000000","ELEMENT_SET_NO":"999","APOAPSIS":"547.921","FILE":"3854072","GP_ID":"227673981","MEAN_ELEMENT_THEORY":"SGP4","EPHEMERIS_TYPE":"0","RCS_SIZE":"LARGE","MEAN_MOTION_DOT":"0.00031177","ARG_OF_PERICENTER":"83.0177","PERIOD":"95.591","OBJECT_ID":"2021-041S","NORAD_CAT_ID":"48569","ECCENTRICITY":"0.00010850","TLE_LINE1":"1 48569U 21041S   23066.32407496  .00031177  00000-0  21019-2 0  9996","OBJECT_NAME":"STARLINK-2219","EPOCH":"2023-03-07T07:46:40.076544","LAUNCH_DATE":"2021-05-15","RA_OF_ASC_NODE":"22.3718","OBJECT_TYPE":"PAYLOAD","MEAN_MOTION":"15.06414420","TIME_SYSTEM":"UTC","MEAN_ANOMALY":"277.0936","CLASSIFICATION_TYPE":"U","REF_FRAME":"TEME","PERIAPSIS":"546.418","COUNTRY_CODE":"US","BSTAR":"0.00210190000000","TLE_LINE2":"2 48569  53.0561  22.3718 0001085  83.0177 277.0936 15.06414420 99657","DECAY_DATE":null,"SITE":"AFETR","SEMIMAJOR_AXIS":"6925.304","INCLINATION":"53.0561"},{"CENTER_NAME":"EARTH","MEAN_MOTION_DDOT":"0.0000000000000","REV_AT_EPOCH":"9948","ELEMENT_SET_NO":"999","GP_ID":"227673720","FILE":"3854072","APOAPSIS":"547.810","EPHEMERIS_TYPE":"0","RCS_SIZE":"LARGE","MEAN_ELEMENT_THEORY":"SGP4","ARG_OF_PERICENTER":"76.8107","MEAN_MOTION_DOT":"0.00040362","NORAD_CAT_ID":"48570","PERIOD":"95.592","OBJECT_ID":"2021-041T","ECCENTRICITY":"0.00008600","OBJECT_NAME":"STARLINK-2220","TLE_LINE1":"1 48570U 21041T   23066.17940453  .00040362  00000-0  27131-2 0  9993","RA_OF_ASC_NODE":"33.0191","OBJECT_TYPE":"PAYLOAD","LAUNCH_DATE":"2021-05-15","EPOCH":"2023-03-07T04:18:20.551392","MEAN_MOTION":"15.06399649","TIME_SYSTEM":"UTC","REF_FRAME":"TEME","MEAN_ANOMALY":"283.2978","CLASSIFICATION_TYPE":"U","TLE_LINE2":"2 48570  53.0540  33.0191 0000860  76.8107 283.2978 15.06399649 99484","PERIAPSIS":"546.619","COUNTRY_CODE":"US","BSTAR":"0.00271310000000","DECAY_DATE":null,"SITE":"AFETR","INCLINATION":"53.0540","SEMIMAJOR_AXIS":"6925.350"},{"MEAN_ELEMENT_THEORY":"SGP4","RCS_SIZE":"LARGE","EPHEMERIS_TYPE":"0","MEAN_MOTION_DOT":"0.00022288","ARG_OF_PERICENTER":"108.4984","OBJECT_ID":"2021-041U","PERIOD":"95.592","NORAD_CAT_ID":"48571","TLE_LINE1":"1 48571U 21041U   23066.91659307  .00022288  00000-0  15102-2 0  9993","OBJECT_NAME":"STARLINK-2221","ECCENTRICITY":"0.00010580","REV_AT_EPOCH":"9960","CENTER_NAME":"EARTH","MEAN_MOTION_DDOT":"0.0000000000000","ELEMENT_SET_NO":"999","FILE":"3854072","APOAPSIS":"547.930","GP_ID":"227672985","DECAY_DATE":null,"SITE":"AFETR","SEMIMAJOR_AXIS":"6925.332","INCLINATION":"53.0544","LAUNCH_DATE":"2021-05-15","EPOCH":"2023-03-07T21:59:53.641248","OBJECT_TYPE":"PAYLOAD","RA_OF_ASC_NODE":"29.7102","TIME_SYSTEM":"UTC","MEAN_MOTION":"15.06405465","CLASSIFICATION_TYPE":"U","MEAN_ANOMALY":"251.6120","REF_FRAME":"TEME","BSTAR":"0.00151020000000","COUNTRY_CODE":"US","PERIAPSIS":"546.464","TLE_LINE2":"2 48571  53.0544  29.7102 0001058 108.4984 251.6120 15.06405465 99604"},{"NORAD_CAT_ID":"48572","PERIOD":"95.592","OBJECT_ID":"2021-041V","TLE_LINE1":"1 48572U 21041V   23066.91290824  .00031684  00000-0  21361-2 0  9993","OBJECT_NAME":"STARLINK-2222","ECCENTRICITY":"0.00018050","RCS_SIZE":"LARGE","EPHEMERIS_TYPE":"0","MEAN_ELEMENT_THEORY":"SGP4","ARG_OF_PERICENTER":"87.2645","MEAN_MOTION_DOT":"0.00031684","ELEMENT_SET_NO":"999","GP_ID":"227673234","FILE":"3854072","APOAPSIS":"548.449","MEAN_MOTION_DDOT":"0.0000000000000","CENTER_NAME":"EARTH","REV_AT_EPOCH":"9960","SITE":"AFETR","INCLINATION":"53.0551","SEMIMAJOR_AXIS":"6925.334","DECAY_DATE":null,"REF_FRAME":"TEME","CLASSIFICATION_TYPE":"U","MEAN_ANOMALY":"272.8550","TLE_LINE2":"2 48572  53.0551  29.7312 0001805  87.2645 272.8550 15.06404880 99606","COUNTRY_CODE":"US","BSTAR":"0.00213610000000","PERIAPSIS":"545.949","OBJECT_TYPE":"PAYLOAD","RA_OF_ASC_NODE":"29.7312","EPOCH":"2023-03-07T21:54:35.271936","LAUNCH_DATE":"2021-05-15","MEAN_MOTION":"15.06404880","TIME_SYSTEM":"UTC"},{"ARG_OF_PERICENTER":"92.7955","MEAN_MOTION_DOT":"0.00022319","EPHEMERIS_TYPE":"0","RCS_SIZE":"LARGE","MEAN_ELEMENT_THEORY":"SGP4","ECCENTRICITY":"0.00016500","OBJECT_NAME":"STARLINK-2224","TLE_LINE1":"1 48573U 21041W   23066.89171428  .00022319  00000-0  15121-2 0  9991","NORAD_CAT_ID":"48573","PERIOD":"95.592","OBJECT_ID":"2021-041W","CENTER_NAME":"EARTH","MEAN_MOTION_DDOT":"0.0000000000000","REV_AT_EPOCH":"9973","GP_ID":"227673482","APOAPSIS":"548.328","FILE":"3854072","ELEMENT_SET_NO":"999","DECAY_DATE":null,"INCLINATION":"53.0556","SEMIMAJOR_AXIS":"6925.320","SITE":"AFETR","TIME_SYSTEM":"UTC","MEAN_MOTION":"15.06409304","RA_OF_ASC_NODE":"19.8274","OBJECT_TYPE":"PAYLOAD","EPOCH":"2023-03-07T21:24:04.113792","LAUNCH_DATE":"2021-05-15","TLE_LINE2":"2 48573  53.0556  19.8274 0001650  92.7955 267.3223 15.06409304 99738","PERIAPSIS":"546.042","BSTAR":"0.00151210000000","COUNTRY_CODE":"US","REF_FRAME":"TEME","MEAN_ANOMALY":"267.3223","CLASSIFICATION_TYPE":"U"},{"FILE":"3854072","APOAPSIS":"548.015","GP_ID":"227674220","ELEMENT_SET_NO":"999","REV_AT_EPOCH":"10014","CENTER_NAME":"EARTH","MEAN_MOTION_DDOT":"0.0000000000000","ECCENTRICITY":"0.00012170","OBJECT_NAME":"STARLINK-2225","TLE_LINE1":"1 48574U 21041X   23066.79496692  .00022960  00000-0  15547-2 0  9998","PERIOD":"95.591","OBJECT_ID":"2021-041X","NORAD_CAT_ID":"48574","MEAN_MOTION_DOT":"0.00022960","ARG_OF_PERICENTER":"92.2865","MEAN_ELEMENT_THEORY":"SGP4","EPHEMERIS_TYPE":"0","RCS_SIZE":"LARGE","PERIAPSIS":"546.329","BSTAR":"0.00155470000000","COUNTRY_CODE":"US","TLE_LINE2":"2 48574  53.0534 350.3517 0001217  92.2865 267.8264 15.06413561100140","MEAN_ANOMALY":"267.8264","CLASSIFICATION_TYPE":"U","REF_FRAME":"TEME","TIME_SYSTEM":"UTC","MEAN_MOTION":"15.06413561","EPOCH":"2023-03-07T19:04:45.141888","LAUNCH_DATE":"2021-05-15","RA_OF_ASC_NODE":"350.3517","OBJECT_TYPE":"PAYLOAD","SEMIMAJOR_AXIS":"6925.307","INCLINATION":"53.0534","SITE":"AFETR","DECAY_DATE":null},{"SITE":"AFETR","INCLINATION":"53.0551","SEMIMAJOR_AXIS":"6925.343","DECAY_DATE":null,"REF_FRAME":"TEME","CLASSIFICATION_TYPE":"U","MEAN_ANOMALY":"265.5623","TLE_LINE2":"2 48575  53.0551 340.8039 0001529  94.5541 265.5623 15.06401724100282","BSTAR":"0.00162560000000","COUNTRY_CODE":"US","PERIAPSIS":"546.149","OBJECT_TYPE":"PAYLOAD","RA_OF_ASC_NODE":"340.8039","EPOCH":"2023-03-07T17:51:48.676032","LAUNCH_DATE":"2021-05-15","MEAN_MOTION":"15.06401724","TIME_SYSTEM":"UTC","NORAD_CAT_ID":"48575","PERIOD":"95.592","OBJECT_ID":"2021-041Y","OBJECT_NAME":"STARLINK-2227","TLE_LINE1":"1 48575U 21041Y   23066.74431338  .00024016  00000-0  16256-2 0  9992","ECCENTRICITY":"0.00015290","RCS_SIZE":"LARGE","EPHEMERIS_TYPE":"0","MEAN_ELEMENT_THEORY":"SGP4","ARG_OF_PERICENTER":"94.5541","MEAN_MOTION_DOT":"0.00024016","ELEMENT_SET_NO":"999","GP_ID":"227672486","APOAPSIS":"548.267","FILE":"3854072","CENTER_NAME":"EARTH","MEAN_MOTION_DDOT":"0.0000000000000","REV_AT_EPOCH":"10028"},{"INCLINATION":"53.0540","SEMIMAJOR_AXIS":"6925.361","SITE":"AFETR","DECAY_DATE":null,"TLE_LINE2":"2 48576  53.0540 355.1935 0001732  76.7871 283.3311 15.06396008100087","COUNTRY_CODE":"US","BSTAR":"0.00071386000000","PERIAPSIS":"546.026","REF_FRAME":"TEME","CLASSIFICATION_TYPE":"U","MEAN_ANOMALY":"283.3311","TIME_SYSTEM":"UTC","MEAN_MOTION":"15.06396008","OBJECT_TYPE":"PAYLOAD","RA_OF_ASC_NODE":"355.1935","LAUNCH_DATE":"2021-05-15","EPOCH":"2023-03-07T19:27:57.611808","OBJECT_NAME":"STARLINK-2228","TLE_LINE1":"1 48576U 21041Z   23066.81108347  .00010366  00000-0  71386-3 0  9991","ECCENTRICITY":"0.00017320","NORAD_CAT_ID":"48576","PERIOD":"95.592","OBJECT_ID":"2021-041Z","ARG_OF_PERICENTER":"76.7871","MEAN_MOTION_DOT":"0.00010366","RCS_SIZE":"LARGE","EPHEMERIS_TYPE":"0","MEAN_ELEMENT_THEORY":"SGP4","GP_ID":"227672735","FILE":"3854072","APOAPSIS":"548.425","ELEMENT_SET_NO":"999","MEAN_MOTION_DDOT":"0.0000000000000","CENTER_NAME":"EARTH","REV_AT_EPOCH":"10008"},{"CENTER_NAME":"EARTH","MEAN_MOTION_DDOT":"0.0000000000000","REV_AT_EPOCH":"9973","GP_ID":"227673982","FILE":"3854072","APOAPSIS":"548.335","ELEMENT_SET_NO":"999","ARG_OF_PERICENTER":"102.8962","MEAN_MOTION_DOT":"0.00003209","EPHEMERIS_TYPE":"0","RCS_SIZE":"LARGE","MEAN_ELEMENT_THEORY":"SGP4","ECCENTRICITY":"0.00015810","OBJECT_NAME":"STARLINK-2231","TLE_LINE1":"1 48577U 21041AA  23066.88433791  .00003209  00000-0  23425-3 0  9992","NORAD_CAT_ID":"48577","OBJECT_ID":"2021-041AA","PERIOD":"95.593","MEAN_MOTION":"15.06391247","TIME_SYSTEM":"UTC","RA_OF_ASC_NODE":"19.8603","OBJECT_TYPE":"PAYLOAD","EPOCH":"2023-03-07T21:13:26.795424","LAUNCH_DATE":"2021-05-15","TLE_LINE2":"2 48577  53.0569  19.8603 0001581 102.8962 257.2204 15.06391247 99739","PERIAPSIS":"546.145","BSTAR":"0.00023425000000","COUNTRY_CODE":"US","REF_FRAME":"TEME","MEAN_ANOMALY":"257.2204","CLASSIFICATION_TYPE":"U","DECAY_DATE":null,"INCLINATION":"53.0569","SEMIMAJOR_AXIS":"6925.375","SITE":"AFETR"}];
